TDRS 3                  
1 19548U 88091B   24332.21481434 -.00000287  00000+0  00000+0 0  9990
2 19548  13.0383 344.7930 0039777 337.2171 132.9156  1.00279920119686
HST                     
1 20580U 90037B   24332.41830726  .00013122  00000+0  56003-3 0  9994
2 20580  28.4699 328.8169 0002079  25.7142 334.3555 15.21360392702145
TDRS 5                  
1 21639U 91054B   24331.50111807 -.00000290  00000+0  00000+0 0  9996
2 21639  14.1417 357.9237 0006334 256.8461 289.1488  1.00279680122025
TDRS 6                  
1 22314U 93003B   24331.93368549 -.00000284  00000+0  00000+0 0  9990
2 22314  14.1683   1.2226 0009584 193.2098 161.9784  1.00265366116696
TDRS 7                  
1 23613U 95035B   24332.03125231 -.00000187  00000+0  00000+0 0  9993
2 23613  13.6142 352.0924 0021846  73.2825  97.0286  1.00266934107468
ISS (ZARYA)             
1 25544U 98067A   24332.39236791  .00023440  00000+0  41811-3 0  9994
2 25544  51.6389 226.8295 0006858 273.4406  86.5798 15.49937635483865
TERRA                   
1 25994U 99068A   24332.48270066  .00001637  00000+0  34844-3 0  9990
2 25994  98.0287  31.0423 0001991 178.8319 297.2690 14.60262108326999
TDRS 8                  
1 26388U 00034A   24331.83817080  .00000111  00000+0  00000+0 0  9993
2 26388  11.7890  35.9237 0007231 214.9455 309.4549  1.00268874 89497
TIMED                   
1 26998U 01055B   24332.31895699  .00004753  00000+0  46351-3 0  9999
2 26998  74.0698 294.4583 0003133 278.4813  81.6015 14.92740868246291
AQUA                    
1 27424U 02022A   24332.51161412  .00003349  00000+0  70137-3 0  9999
2 27424  98.3513 282.7661 0001121  39.7059  69.7362 14.60406869200548
TDRS 10                 
1 27566U 02055A   24331.80446019  .00000104  00000+0  00000+0 0  9996
2 27566   9.8666  44.2014 0004050 281.2839 219.1983  1.00276563 80539
SORCE                   
1 27651U 03004A   24332.47887602  .00008988  00000+0  75927-3 0  9999
2 27651  39.9918 242.3739 0022153 307.2201  52.6569 14.97819856186736
AURA                    
1 28376U 04026A   24331.83064460  .00003168  00000+0  67480-3 0  9997
2 28376  98.2696 275.7770 0000764  38.6849 321.4405 14.59660790 83397
SWIFT                   
1 28485U 04047A   24331.67589863  .00026922  00000+0  95754-3 0  9990
2 28485  20.5544  91.7824 0006095 221.0129 138.9850 15.27079436 98978
THEMIS A                
1 30580U 07004A   24331.13435865 -.00000445  00000+0  00000+0 0  9997
2 30580   7.8959 251.5201 8411959 351.5746   0.3505  0.87837821 36286
THEMIS D                
1 30797U 07004D   24331.74596299 -.00000481  00000+0  00000+0 0  9993
2 30797   3.3192 251.9224 8399888 355.3681 182.6942  0.87838651 36080
THEMIS E                
1 30798U 07004E   24332.01665639 -.00000483  00000+0  00000+0 0  9992
2 30798   5.5349 275.1294 8388284 333.1980 281.7958  0.87836095 60926
FGRST (GLAST)           
1 33053U 08029A   24331.82153539  .00006514  00000+0  28687-3 0  9991
2 33053  25.5800 170.6716 0010148 131.7662 228.3744 15.19057737909311
TDRS 11                 
1 39070U 13004A   24332.54897316  .00000101  00000+0  00000+0 0  9994
2 39070   2.8486  17.2644 0001723  44.4500  28.4437  1.00271787 43304
TDRS 12                 
1 39504U 14004A   24332.29202618 -.00000249  00000+0  00000+0 0  9998
2 39504   3.5875   7.3319 0005581 236.9459 246.4753  1.00278469 39764
GPM-CORE                
1 39574U 14009C   24332.08192279  .00028021  00000+0  60735-3 0  9990
2 39574  64.9827  47.6120 0012509 263.9154  96.0561 15.44256123610235
MMS 1                   
1 40482U 15011A   24332.58334491  .00000042  00000+0  00000+0 0  9991
2 40482  56.8839   1.9023 8943065 154.0547 301.4384  0.28546171 15839
MMS 2                   
1 40483U 15011B   24332.58334491  .00000042  00000+0  00000+0 0  9992
2 40483  56.8820   1.9030 8943368 154.0532 300.0179  0.28535298 15811
MMS 3                   
1 40484U 15011C   24332.58334491  .00000042  00000+0  00000+0 0  9993
2 40484  56.8841   1.9012 8943312 154.0541 300.2298  0.28535873 15828
MMS 4                   
1 40485U 15011D   24332.58334491  .00000042  00000+0  00000+0 0  9994
2 40485  56.8733   1.9082 8943223 154.0487 290.2937  0.28528979 15812
TDRS 13                 
1 42915U 17047A   24332.03643745 -.00000082  00000+0  00000+0 0  9995
2 42915   3.5326 348.3253 0011382 127.1717 312.7323  1.00272823 26690
NOAA 20 (JPSS-1)        
1 43013U 17073A   24332.51277681  .00000343  00000+0  18351-3 0  9990
2 43013  98.7224 267.7854 0002341  91.7536 268.3908 14.19575485364070
